[{"OBJECT_NAME":"MONITOR-3 (RS58S)","OBJECT_ID":"2023-091Q","EPOCH":"2026-03-09T23:24:02.583360","MEAN_MOTION":15.25747617,"ECCENTRICITY":0.0013676,"INCLINATION":97.5199,"RA_OF_ASC_NODE":131.7909,"ARG_OF_PERICENTER":91.0881,"MEAN_ANOMALY":269.1924,"EPHEMERIS_TYPE":0,"CLASSIFICATION_TYPE":"U","NORAD_CAT_ID":57180,"ELEMENT_SET_NO":999,"REV_AT_EPOCH":14915,"BSTAR":0.00054974842,"MEAN_MOTION_DOT":0.00014004,"MEAN_MOTION_DDOT":0},{"OBJECT_NAME":"STARLINK-35977","OBJECT_ID":"2025-270S","EPOCH":"2026-03-09T23:19:20.348256","MEAN_MOTION":15.27607303,"ECCENTRICITY":0.00013156,"INCLINATION":43.002,"RA_OF_ASC_NODE":54.1796,"ARG_OF_PERICENTER":237.2277,"MEAN_ANOMALY":122.8448,"EPHEMERIS_TYPE":0,"CLASSIFICATION_TYPE":"U","NORAD_CAT_ID":66604,"ELEMENT_SET_NO":999,"REV_AT_EPOCH":1775,"BSTAR":0.001399044,"MEAN_MOTION_DOT":0.0003847,"MEAN_MOTION_DDOT":0}]
